start=new Date('2022-07-31T00:00:00.000Z').valueOf();
sats=[{"CENTER_NAME":"EARTH","MEAN_MOTION_DDOT":"0.0000000000000","COUNTRY_CODE":"US","TLE_LINE2":"2 49752  53.2171 295.8344 0001737  52.5585 307.5565 15.08837706 36703","EPHEMERIS_TYPE":"0","OBJECT_NAME":"STARLINK-3209","OBJECT_TYPE":"PAYLOAD","GP_ID":"209228927","FILE":"3525638","MEAN_MOTION":"15.08837706","REV_AT_EPOCH":"3670","PERIOD":"95.438","MEAN_MOTION_DOT":"-0.00000008","MEAN_ELEMENT_THEORY":"SGP4","ARG_OF_PERICENTER":"52.5585","PERIAPSIS":"538.551","TIME_SYSTEM":"UTC","CLASSIFICATION_TYPE":"U","LAUNCH_DATE":"2021-12-02","ELEMENT_SET_NO":"999","RA_OF_ASC_NODE":"295.8344","APOAPSIS":"540.954","SITE":"AFETR","RCS_SIZE":"LARGE","MEAN_ANOMALY":"307.5565","INCLINATION":"53.2171","REF_FRAME":"TEME","SEMIMAJOR_AXIS":"6917.887","NORAD_CAT_ID":"49752","EPOCH":"2022-07-30T16:44:09.622176","BSTAR":"0.00001760200000","OBJECT_ID":"2021-115AE","TLE_LINE1":"1 49752U 21115AE  22211.69733359 -.00000008  00000-0  17602-4 0  9999","DECAY_DATE":null,"ECCENTRICITY":"0.00017370"},{"SITE":"AFETR","RCS_SIZE":"LARGE","MEAN_ANOMALY":"305.9554","INCLINATION":"53.2180","REF_FRAME":"TEME","NORAD_CAT_ID":"49753","SEMIMAJOR_AXIS":"6917.834","OBJECT_ID":"2021-115AF","BSTAR":"-0.00022463000000","EPOCH":"2022-07-30T16:16:19.782336","TLE_LINE1":"1 49753U 21115AF  22211.67800674 -.00003863  00000-0 -22463-3 0  9996","DECAY_DATE":null,"ECCENTRICITY":"0.00017430","CENTER_NAME":"EARTH","MEAN_MOTION_DDOT":"0.0000000000000","COUNTRY_CODE":"US","TLE_LINE2":"2 49753  53.2180 305.9208 0001743  54.1600 305.9554 15.08855040 36564","OBJECT_NAME":"STARLINK-3200","EPHEMERIS_TYPE":"0","OBJECT_TYPE":"PAYLOAD","MEAN_MOTION":"15.08855040","GP_ID":"209227675","FILE":"3525638","REV_AT_EPOCH":"3656","PERIOD":"95.437","MEAN_ELEMENT_THEORY":"SGP4","MEAN_MOTION_DOT":"-0.00003863","PERIAPSIS":"538.494","ARG_OF_PERICENTER":"54.1600","TIME_SYSTEM":"UTC","CLASSIFICATION_TYPE":"U","LAUNCH_DATE":"2021-12-02","ELEMENT_SET_NO":"999","APOAPSIS":"540.905","RA_OF_ASC_NODE":"305.9208"},{"TIME_SYSTEM":"UTC","PERIAPSIS":"536.096","ARG_OF_PERICENTER":"150.9932","PERIOD":"95.438","MEAN_MOTION_DOT":"-0.00001621","MEAN_ELEMENT_THEORY":"SGP4","MEAN_MOTION":"15.08838542","GP_ID":"209227925","FILE":"3525638","REV_AT_EPOCH":"3669","APOAPSIS":"543.404","RA_OF_ASC_NODE":"296.1430","ELEMENT_SET_NO":"999","CLASSIFICATION_TYPE":"U","LAUNCH_DATE":"2021-12-02","COUNTRY_CODE":"US","MEAN_MOTION_DDOT":"0.0000000000000","CENTER_NAME":"EARTH","OBJECT_TYPE":"PAYLOAD","OBJECT_NAME":"STARLINK-3193","EPHEMERIS_TYPE":"0","TLE_LINE2":"2 49754  53.2171 296.1430 0005282 150.9932 209.1354 15.08838542 36693","DECAY_DATE":null,"ECCENTRICITY":"0.00052820","TLE_LINE1":"1 49754U 21115AG  22211.62470120 -.00001621  00000-0 -83639-4 0  9994","OBJECT_ID":"2021-115AG","BSTAR":"-0.00008363900000","EPOCH":"2022-07-30T14:59:34.183680","NORAD_CAT_ID":"49754","SEMIMAJOR_AXIS":"6917.885","INCLINATION":"53.2171","MEAN_ANOMALY":"209.1354","SITE":"AFETR","RCS_SIZE":"LARGE","REF_FRAME":"TEME"},{"CENTER_NAME":"EARTH","COUNTRY_CODE":"US","MEAN_MOTION_DDOT":"0.0000000000000","TLE_LINE2":"2 49755  53.2195 306.4723 0001253  90.5470 269.5666 15.08839116 36548","EPHEMERIS_TYPE":"0","OBJECT_NAME":"STARLINK-3210","OBJECT_TYPE":"PAYLOAD","MEAN_MOTION":"15.08839116","GP_ID":"209172234","FILE":"3525407","REV_AT_EPOCH":"3654","MEAN_ELEMENT_THEORY":"SGP4","PERIOD":"95.438","MEAN_MOTION_DOT":"0.00000102","ARG_OF_PERICENTER":"90.5470","PERIAPSIS":"538.881","TIME_SYSTEM":"UTC","LAUNCH_DATE":"2021-12-02","CLASSIFICATION_TYPE":"U","ELEMENT_SET_NO":"999","RA_OF_ASC_NODE":"306.4723","APOAPSIS":"540.615","RCS_SIZE":"LARGE","SITE":"AFETR","MEAN_ANOMALY":"269.5666","INCLINATION":"53.2195","REF_FRAME":"TEME","SEMIMAJOR_AXIS":"6917.883","NORAD_CAT_ID":"49755","EPOCH":"2022-07-30T13:16:09.427296","BSTAR":"0.00002448900000","OBJECT_ID":"2021-115AH","TLE_LINE1":"1 49755U 21115AH  22211.55288689  .00000102  00000-0  24489-4 0  9993","DECAY_DATE":null,"ECCENTRICITY":"0.00012530"},{"APOAPSIS":"540.762","RA_OF_ASC_NODE":"296.0685","LAUNCH_DATE":"2021-12-02","CLASSIFICATION_TYPE":"U","ELEMENT_SET_NO":"999","PERIAPSIS":"538.739","ARG_OF_PERICENTER":"66.0785","TIME_SYSTEM":"UTC","GP_ID":"209229428","REV_AT_EPOCH":"3669","FILE":"3525638","MEAN_MOTION":"15.08838297","PERIOD":"95.438","MEAN_MOTION_DOT":"0.00000174","MEAN_ELEMENT_THEORY":"SGP4","OBJECT_NAME":"STARLINK-3207","EPHEMERIS_TYPE":"0","OBJECT_TYPE":"PAYLOAD","TLE_LINE2":"2 49756  53.2166 296.0685 0001462  66.0785 294.0360 15.08838297 36696","COUNTRY_CODE":"US","MEAN_MOTION_DDOT":"0.0000000000000","CENTER_NAME":"EARTH","TLE_LINE1":"1 49756U 21115AJ  22211.64213119  .00000174  00000-0  29053-4 0  9991","DECAY_DATE":null,"ECCENTRICITY":"0.00014620","NORAD_CAT_ID":"49756","SEMIMAJOR_AXIS":"6917.886","OBJECT_ID":"2021-115AJ","BSTAR":"0.00002905300000","EPOCH":"2022-07-30T15:24:40.134816","REF_FRAME":"TEME","MEAN_ANOMALY":"294.0360","INCLINATION":"53.2166","RCS_SIZE":"LARGE","SITE":"AFETR"},{"RCS_SIZE":"LARGE","SITE":"AFETR","MEAN_ANOMALY":"312.7200","INCLINATION":"53.2156","REF_FRAME":"TEME","NORAD_CAT_ID":"49757","SEMIMAJOR_AXIS":"6917.861","OBJECT_ID":"2021-115AK","EPOCH":"2022-07-30T15:14:04.294752","BSTAR":"0.00012622000000","TLE_LINE1":"1 49757U 21115AK  22211.63477193  .00001722  00000-0  12622-3 0  9998","DECAY_DATE":null,"ECCENTRICITY":"0.00017100","CENTER_NAME":"EARTH","MEAN_MOTION_DDOT":"0.0000000000000","COUNTRY_CODE":"US","TLE_LINE2":"2 49757  53.2156 296.1051 0001710  47.3936 312.7200 15.08846438 36697","OBJECT_NAME":"STARLINK-3197","EPHEMERIS_TYPE":"0","OBJECT_TYPE":"PAYLOAD","GP_ID":"209228176","MEAN_MOTION":"15.08846438","FILE":"3525638","REV_AT_EPOCH":"3669","PERIOD":"95.437","MEAN_ELEMENT_THEORY":"SGP4","MEAN_MOTION_DOT":"0.00001722","PERIAPSIS":"538.543","ARG_OF_PERICENTER":"47.3936","TIME_SYSTEM":"UTC","CLASSIFICATION_TYPE":"U","LAUNCH_DATE":"2021-12-02","ELEMENT_SET_NO":"999","APOAPSIS":"540.909","RA_OF_ASC_NODE":"296.1051"},{"TLE_LINE2":"2 49758  53.2177 296.0412 0001775  58.1141 302.0024 15.08850744 36691","OBJECT_NAME":"STARLINK-3194","EPHEMERIS_TYPE":"0","OBJECT_TYPE":"PAYLOAD","CENTER_NAME":"EARTH","COUNTRY_CODE":"US","MEAN_MOTION_DDOT":"0.0000000000000","LAUNCH_DATE":"2021-12-02","CLASSIFICATION_TYPE":"U","ELEMENT_SET_NO":"999","APOAPSIS":"540.940","RA_OF_ASC_NODE":"296.0412","GP_ID":"209228426","FILE":"3525638","MEAN_MOTION":"15.08850744","REV_AT_EPOCH":"3669","PERIOD":"95.437","MEAN_MOTION_DOT":"-0.00002812","MEAN_ELEMENT_THEORY":"SGP4","PERIAPSIS":"538.485","ARG_OF_PERICENTER":"58.1141","TIME_SYSTEM":"UTC","REF_FRAME":"TEME","RCS_SIZE":"LARGE","SITE":"AFETR","MEAN_ANOMALY":"302.0024","INCLINATION":"53.2177","NORAD_CAT_ID":"49758","SEMIMAJOR_AXIS":"6917.848","OBJECT_ID":"2021-115AL","BSTAR":"-0.00015862000000","EPOCH":"2022-07-30T15:35:15.861696","TLE_LINE1":"1 49758U 21115AL  22211.64948914 -.00002812  00000-0 -15862-3 0  9996","ECCENTRICITY":"0.00017750","DECAY_DATE":null},{"BSTAR":"0.00005818300000","EPOCH":"2022-07-30T16:54:45.329184","OBJECT_ID":"2021-115AM","SEMIMAJOR_AXIS":"6917.854","NORAD_CAT_ID":"49759","DECAY_DATE":null,"ECCENTRICITY":"0.00017880","TLE_LINE1":"1 49759U 21115AM  22211.70469131  .00000638  00000-0  58183-4 0  9999","RCS_SIZE":"LARGE","SITE":"AFETR","INCLINATION":"53.2181","MEAN_ANOMALY":"316.2877","REF_FRAME":"TEME","PERIOD":"95.437","MEAN_MOTION_DOT":"0.00000638","MEAN_ELEMENT_THEORY":"SGP4","FILE":"3525638","GP_ID":"209228677","MEAN_MOTION":"15.08848658","REV_AT_EPOCH":"3670","TIME_SYSTEM":"UTC","ARG_OF_PERICENTER":"43.8257","PERIAPSIS":"538.482","ELEMENT_SET_NO":"999","CLASSIFICATION_TYPE":"U","LAUNCH_DATE":"2021-12-02","RA_OF_ASC_NODE":"295.7986","APOAPSIS":"540.956","CENTER_NAME":"EARTH","COUNTRY_CODE":"US","MEAN_MOTION_DDOT":"0.0000000000000","TLE_LINE2":"2 49759  53.2181 295.7986 0001788  43.8257 316.2877 15.08848658 36708","OBJECT_TYPE":"PAYLOAD","EPHEMERIS_TYPE":"0","OBJECT_NAME":"STARLINK-3204"},{"OBJECT_ID":"2021-115AN","EPOCH":"2022-07-30T15:45:52.497504","BSTAR":"-0.00011199000000","NORAD_CAT_ID":"49760","SEMIMAJOR_AXIS":"6917.878","DECAY_DATE":null,"ECCENTRICITY":"0.00016790","TLE_LINE1":"1 49760U 21115AN  22211.65685761 -.00002070  00000-0 -11199-3 0  9993","REF_FRAME":"TEME","SITE":"AFETR","RCS_SIZE":"LARGE","INCLINATION":"53.2189","MEAN_ANOMALY":"314.1471","ELEMENT_SET_NO":"999","CLASSIFICATION_TYPE":"U","LAUNCH_DATE":"2021-12-02","APOAPSIS":"540.905","RA_OF_ASC_NODE":"296.0055","PERIOD":"95.438","MEAN_MOTION_DOT":"-0.00002070","MEAN_ELEMENT_THEORY":"SGP4","REV_AT_EPOCH":"3670","GP_ID":"209228928","FILE":"3525638","MEAN_MOTION":"15.08840687","TIME_SYSTEM":"UTC","PERIAPSIS":"538.582","ARG_OF_PERICENTER":"45.9659","TLE_LINE2":"2 49760  53.2189 296.0055 0001679  45.9659 314.1471 15.08840687 36708","OBJECT_TYPE":"PAYLOAD","OBJECT_NAME":"STARLINK-3199","EPHEMERIS_TYPE":"0","CENTER_NAME":"EARTH","MEAN_MOTION_DDOT":"0.0000000000000","COUNTRY_CODE":"US"},{"INCLINATION":"53.2167","MEAN_ANOMALY":"310.0309","SITE":"AFETR","RCS_SIZE":"LARGE","REF_FRAME":"TEME","ECCENTRICITY":"0.00018680","DECAY_DATE":null,"TLE_LINE1":"1 49761U 21115AP  22211.64581851 -.00002086  00000-0 -11298-3 0  9995","OBJECT_ID":"2021-115AP","BSTAR":"-0.00011298000000","EPOCH":"2022-07-30T15:29:58.719264","NORAD_CAT_ID":"49761","SEMIMAJOR_AXIS":"6917.890","COUNTRY_CODE":"US","MEAN_MOTION_DDOT":"0.0000000000000","CENTER_NAME":"EARTH","OBJECT_TYPE":"PAYLOAD","OBJECT_NAME":"STARLINK-3203","EPHEMERIS_TYPE":"0","TLE_LINE2":"2 49761  53.2167 296.0649 0001868  50.0847 310.0309 15.08836885 36698","TIME_SYSTEM":"UTC","PERIAPSIS":"538.463","ARG_OF_PERICENTER":"50.0847","MEAN_ELEMENT_THEORY":"SGP4","PERIOD":"95.438","MEAN_MOTION_DOT":"-0.00002086","GP_ID":"209227676","FILE":"3525638","REV_AT_EPOCH":"3669","MEAN_MOTION":"15.08836885","APOAPSIS":"541.047","RA_OF_ASC_NODE":"296.0649","ELEMENT_SET_NO":"999","LAUNCH_DATE":"2021-12-02","CLASSIFICATION_TYPE":"U"}];
